# Made by eph2tle, compiled Jan 26 2025 13:45:38
# Run at Mon Jan 27 15:42:29 2025 UTC
#
#    The following TLEs (Two-Line Elements) were generated by fitting
# a numerically-integrated ephemeris,  based on the orbit given below,
# to the SDP4/SGP4 models.  Each TLE is good for the interval between
# its epoch and the epoch of the subsequent TLE (usually one day).
# The maximum deviation between the numerically integrated ephemerides
# and the TLE-based ephemeris, in kilometers,  is given for each TLE
# as the "worst residual".
#
#    This fitting is done using the 'eph2tle' code packaged with Find_Orb.
# The code has details on how the TLEs were computed :
#
#    https://github.com/Bill-Gray/find_orb/eph2tle.cpp
#
#    Be warned:  the error given is that between the numerically
# integrated ephems and the TLE model.  There will usually be at
# least some additional difference between the ephems and the actual
# motion of the satellite,  especially if the ephemerides are based
# on a short arc.  If the following orbital elements say something
# like "[based on] 10 observations 2015 Jan. 1-13",  and the TLEs
# are for 2015 May,  the extrapolation may be tenuous at best.  If
# your application requires a specific level of accuracy,  you may
# want to contact me;  I can give you some idea as to the fit of the
# underlying data (and possibly TLEs based on newer data).
#
#   You can usually find the underlying observational data,  and the
# fitted orbit,  residuals,  ephemerides,  and sometimes some comments
# about the object,  among the pages listed at
#
#    https://www.projectpluto.com/pluto/mpecs/pseudo.htm
#
#    Also,  if you use a TLE outside the "correct" time range (between
# its MJD and that of the next TLE),  all bets are off.  I've carefully
# computed and minimized the worst error over the "correct" time frame,
# but the ephemeris may (or may not) diverge wildly outside of it.
#
# Ephem range: 60691.000000 60765.000000 1.000000
# Created Mon Jan 27 10:41:51 2025
# Ephemeris start: 16 Jan 2025  0:00:00
# Ephemeris end:   31 Mar 2025  0:00:00
# Times are all TDT
# Positions/velocities are in equatorial J2000
# Orbital elements:  2025-010D = NORAD 62719 = Falcon 9-426 Stage 2
#    Perigee 2025 Jan 25.683348 +/- 1.07e-5 TT = 16:24:01.2 (JD 2460701.183348)
# Epoch 2025 Jan 24.0 TT = JDT 2460699.5                           Find_Orb
# M 302.160568175 +/- 0.0006          (J2000 equator)
# n  34.359767513 +/- 0.000188        Peri.  348.779593 +/- 0.00010
# a202256.9071 +/- 0.739              Node   358.403365 +/- 0.000039
# e   0.93352473 +/- 6.92e-7          Incl.   37.542485 +/- 0.00011
# P  10.4772d                H 26.26  G  0.15   U  7.0
# q 13445.08240 +/- 0.0967    Q 391068.7318 +/- 1.56
# 38 of 132 observations 2025 Jan. 20-27; mean residual 0".205
#
# 1 NoradU COSPAR   Epoch.epoch     dn/dt/2  d2n/dt2/6 BSTAR    T El# C
# 2 NoradU Inclina RAAscNode Eccent  ArgPeri MeanAno  MeanMotion Rev# C

# Worst residual: 16.50 km
# MJD 60691.000000 (2025 Jan 16  0:00)
2025-010D = NORAD 62719 = Falcon 9-426 Stage 2
1 62719U 25010D   25016.49919926  .00000000  00000-0  00000-0 0 25848
2 62719 036.4745 359.5563 9686250 346.6258 038.5928 00.10431112    00

# Worst residual: 173.05 km
# MJD 60692.000000 (2025 Jan 17  0:00)
2025-010D = NORAD 62719 = Falcon 9-426 Stage 2
1 62719U 25010D   25017.49919926  .00000000  00000-0  00000-0 0 25849
2 62719 037.2176 359.0319 9688451 347.2376 074.0260 00.10252449    02

# Worst residual: 210.95 km
# MJD 60693.000000 (2025 Jan 18  0:00)
2025-010D = NORAD 62719 = Falcon 9-426 Stage 2
1 62719U 25010D   25018.49919926  .00000000  00000-0  00000-0 0 25840
2 62719 038.6441 358.2554 9607583 349.2916 104.5928 00.09832718    04

# Worst residual: 111.98 km
# MJD 60694.000000 (2025 Jan 19  0:00)
2025-010D = NORAD 62719 = Falcon 9-426 Stage 2
1 62719U 25010D   25019.49919926  .00000000  00000-0  00000-0 0 25841
2 62719 038.4357 358.3529 9466283 350.2382 138.6346 00.09679648    03

# Worst residual: 45.17 km
# MJD 60695.000000 (2025 Jan 20  0:00)
2025-010D = NORAD 62719 = Falcon 9-426 Stage 2
1 62719U 25010D   25020.49919926  .00000000  00000-0  00000-0 0 25843
2 62719 038.0941 358.4683 9399408 350.2362 174.5162 00.09642894    00

# Worst residual: 27.31 km
# MJD 60696.000000 (2025 Jan 21  0:00)
2025-010D = NORAD 62719 = Falcon 9-426 Stage 2
1 62719U 25010D   25021.49919926  .00000000  00000-0  00000-0 0 25844
2 62719 037.9754 358.4904 9376210 350.1297 210.1199 00.09615632    05

# Worst residual: 16.65 km
# MJD 60697.000000 (2025 Jan 22  0:00)
2025-010D = NORAD 62719 = Falcon 9-426 Stage 2
1 62719U 25010D   25022.49919926  .00000000  00000-0  00000-0 0 25845
2 62719 037.9593 358.4819 9370908 350.0741 245.1637 00.09590108    07

# Worst residual: 4.38 km
# MJD 60698.000000 (2025 Jan 23  0:00)
2025-010D = NORAD 62719 = Falcon 9-426 Stage 2
1 62719U 25010D   25023.49919926  .00000000  00000-0  00000-0 0 25846
2 62719 037.9676 358.4678 9368539 350.0645 279.6726 00.09573696    06

# Worst residual: 22.93 km
# MJD 60699.000000 (2025 Jan 24  0:00)
2025-010D = NORAD 62719 = Falcon 9-426 Stage 2
1 62719U 25010D   25024.49919926  .00000000  00000-0  00000-0 0 25847
2 62719 037.9551 358.4521 9362727 350.0694 313.7893 00.09591913    09

# Worst residual: 99.03 km
# MJD 60700.000000 (2025 Jan 25  0:00)
2025-010D = NORAD 62719 = Falcon 9-426 Stage 2
1 62719U 25010D   25025.49919926  .00000000  00000-0  00000-0 0 25848
2 62719 037.9687 358.4530 9344324 350.0257 347.9971 00.09801492    09

# Worst residual: 68.89 km
# MJD 60701.000000 (2025 Jan 26  0:00)
2025-010D = NORAD 62719 = Falcon 9-426 Stage 2
1 62719U 25010D   25026.49919926  .00000000  00000-0  00000-0 0 25849
2 62719 038.0188 358.3455 9359457 349.6412 022.7880 00.09751616    01

# Worst residual: 32.95 km
# MJD 60702.000000 (2025 Jan 27  0:00)
2025-010D = NORAD 62719 = Falcon 9-426 Stage 2
1 62719U 25010D   25027.49919926  .00000000  00000-0  00000-0 0 25840
2 62719 038.1421 358.2372 9377187 349.7466 056.2316 00.09583187    01

# Worst residual: 25.97 km
# MJD 60703.000000 (2025 Jan 28  0:00)
2025-010D = NORAD 62719 = Falcon 9-426 Stage 2
1 62719U 25010D   25028.49919926  .00000000  00000-0  00000-0 0 25841
2 62719 038.1733 358.2133 9382727 349.8665 089.5037 00.09515410    03

# Worst residual: 16.34 km
# MJD 60704.000000 (2025 Jan 29  0:00)
2025-010D = NORAD 62719 = Falcon 9-426 Stage 2
1 62719U 25010D   25029.49919926  .00000000  00000-0  00000-0 0 25842
2 62719 038.1227 358.2348 9376427 349.9880 122.9072 00.09484077    04

# Worst residual: 13.84 km
# MJD 60705.000000 (2025 Jan 30  0:00)
2025-010D = NORAD 62719 = Falcon 9-426 Stage 2
1 62719U 25010D   25030.49919926  .00000000  00000-0  00000-0 0 25844
2 62719 038.0064 358.2762 9363221 350.0499 156.6529 00.09470395    08

# Worst residual: 12.30 km
# MJD 60706.000000 (2025 Jan 31  0:00)
2025-010D = NORAD 62719 = Falcon 9-426 Stage 2
1 62719U 25010D   25031.49919926  .00000000  00000-0  00000-0 0 25845
2 62719 037.9009 358.3014 9351799 350.0458 190.7874 00.09462169    00

# Worst residual: 19.26 km
# MJD 60707.000000 (2025 Feb  1  0:00)
2025-010D = NORAD 62719 = Falcon 9-426 Stage 2
1 62719U 25010D   25032.49919926  .00000000  00000-0  00000-0 0 25846
2 62719 037.8852 358.2949 9350426 350.0291 225.1374 00.09451527    06

# Worst residual: 17.01 km
# MJD 60708.000000 (2025 Feb  2  0:00)
2025-010D = NORAD 62719 = Falcon 9-426 Stage 2
1 62719U 25010D   25033.49919926  .00000000  00000-0  00000-0 0 25847
2 62719 037.9535 358.2743 9359644 350.0646 259.4246 00.09436604    09

# Worst residual: 11.34 km
# MJD 60709.000000 (2025 Feb  3  0:00)
2025-010D = NORAD 62719 = Falcon 9-426 Stage 2
1 62719U 25010D   25034.49919926  .00000000  00000-0  00000-0 0 25848
2 62719 038.0767 358.2586 9371237 350.1626 293.4257 00.09423379    09

# Worst residual: 4.77 km
# MJD 60710.000000 (2025 Feb  4  0:00)
2025-010D = NORAD 62719 = Falcon 9-426 Stage 2
1 62719U 25010D   25035.49919926  .00000000  00000-0  00000-0 0 25849
2 62719 038.1585 358.2537 9375186 350.2360 327.1505 00.09425010    02

# Worst residual: 46.55 km
# MJD 60711.000000 (2025 Feb  5  0:00)
2025-010D = NORAD 62719 = Falcon 9-426 Stage 2
1 62719U 25010D   25036.49919926  .00000000  00000-0  00000-0 0 25840
2 62719 038.1756 358.2246 9368672 350.2639 001.0048 00.09553754    07

# Worst residual: 11.95 km
# MJD 60712.000000 (2025 Feb  6  0:00)
2025-010D = NORAD 62719 = Falcon 9-426 Stage 2
1 62719U 25010D   25037.49919926  .00000000  00000-0  00000-0 0 25841
2 62719 038.2129 358.1847 9364841 350.2768 035.7243 00.09663089    09

# Worst residual: 11.85 km
# MJD 60713.000000 (2025 Feb  7  0:00)
2025-010D = NORAD 62719 = Falcon 9-426 Stage 2
1 62719U 25010D   25038.49919926  .00000000  00000-0  00000-0 0 25842
2 62719 038.2729 358.1317 9372754 350.2591 070.1075 00.09651115    06

# Worst residual: 13.37 km
# MJD 60714.000000 (2025 Feb  8  0:00)
2025-010D = NORAD 62719 = Falcon 9-426 Stage 2
1 62719U 25010D   25039.49919926  .00000000  00000-0  00000-0 0 25843
2 62719 038.3036 358.1059 9374825 350.3353 104.1974 00.09627377    08

# Worst residual: 14.57 km
# MJD 60715.000000 (2025 Feb  9  0:00)
2025-010D = NORAD 62719 = Falcon 9-426 Stage 2
1 62719U 25010D   25040.49919926  .00000000  00000-0  00000-0 0 25845
2 62719 038.2565 358.1194 9365321 350.4225 138.4261 00.09613327    03

# Worst residual: 19.26 km
# MJD 60716.000000 (2025 Feb 10  0:00)
2025-010D = NORAD 62719 = Falcon 9-426 Stage 2
1 62719U 25010D   25041.49919926  .00000000  00000-0  00000-0 0 25846
2 62719 038.1562 358.1474 9348490 350.4361 173.1749 00.09604743    08

# Worst residual: 44.62 km
# MJD 60717.000000 (2025 Feb 11  0:00)
2025-010D = NORAD 62719 = Falcon 9-426 Stage 2
1 62719U 25010D   25042.49919926  .00000000  00000-0  00000-0 0 25847
2 62719 038.0996 358.1550 9336099 350.3622 208.5647 00.09586501    05
